GLOBALSTAR M067         
1 32263U 07048A   25298.70741419 -.00000057  00000+0  30323-3 0  9990
2 32263  51.9755  14.0152 0000757 236.5515 290.5578 12.40680373825688
GLOBALSTAR M070         
1 32264U 07048B   25298.69354036 -.00000108  00000+0 -25054-4 0  9998
2 32264  51.9734  90.9225 0001040 100.3450 274.0030 12.62324945830154
GLOBALSTAR M066         
1 32265U 07048C   25298.45262534 -.00000096  00000+0 -15028-4 0  9990
2 32265  51.9628  11.7651 0004469 269.3590 103.8278 12.30378243831339
GLOBALSTAR M068         
1 32266U 07048D   25298.69163987 -.00000076  00000+0  15739-3 0  9994
2 32266  51.9879 264.4325 0001547  60.5384 110.9210 12.62831270834044
GLOBALSTAR M079         
1 37188U 10054A   25298.74068352 -.00000117  00000+0 -71089-4 0  9997
2 37188  52.0021 102.3590 0000830 116.0207 256.6616 12.62268029692947
GLOBALSTAR M074         
1 37189U 10054B   25298.78758352 -.00000112  00000+0 -48279-4 0  9998
2 37189  51.9998 101.5181 0000798  95.6467   9.9813 12.62272820693559
GLOBALSTAR M076         
1 37190U 10054C   25298.71461931 -.00000105  00000+0 -42435-5 0  9998
2 37190  52.0012 101.9245 0000610 105.5868 267.3215 12.62267086693266
GLOBALSTAR M077         
1 37191U 10054D   25298.79124666 -.00000101  00000+0 -37385-4 0  9991
2 37191  52.0083  62.3094 0002020  52.9867 112.2449 12.36452564693599
